ONEWEB-0198             
1 48216U 21031G   26079.09277570  .00000160  00000+0  39732-3 0  9992
2 48216  87.8963 307.5002 0002077  78.0717 282.0646 13.14502999236784
ONEWEB-0189             
1 48217U 21031H   26079.18145101 -.00000835  00000+0 -22881-2 0  9994
2 48217  87.8970 307.4593 0002061  80.4480 279.6882 13.14495047236536
ONEWEB-0196             
1 48218U 21031J   26079.15923424  .00000246  00000+0  62928-3 0  9995
2 48218  87.8967 307.4750 0001758  79.7448 280.3880 13.14503616236534
ONEWEB-0183             
1 48219U 21031K   26079.13386489 -.00000060  00000+0 -19705-3 0  9999
2 48219  87.8968 307.4797 0001504  78.6038 281.5261 13.14503350236620
ONEWEB-0185             
1 48220U 21031L   26079.16003226  .00000243  00000+0  61998-3 0  9991
2 48220  87.8973 307.4603 0001581  71.0634 289.0667 13.14502828236552
ONEWEB-0187             
1 48221U 21031M   26079.14007084  .00000059  00000+0  12449-3 0  9998
2 48221  87.8955 307.4953 0001775  74.9492 285.1834 13.14503544236560
ONEWEB-0192             
1 48222U 21031N   26079.18619199 -.00000051  00000+0 -17158-3 0  9995
2 48222  87.8955 307.4749 0001723  83.1608 276.9718 13.14504003236489
ONEWEB-0219             
1 48223U 21031P   26079.16557546  .00000229  00000+0  58187-3 0  9993
2 48223  87.8968 307.4656 0001689  74.3793 285.7523 13.14503838236688
ONEWEB-0202             
1 48224U 21031Q   26079.14654943  .00000193  00000+0  48726-3 0  9999
2 48224  87.8965 307.4779 0002328  84.6749 275.4647 13.14502488236669
ONEWEB-0204             
1 48225U 21031R   26079.18063172  .00000006  00000+0 -18668-4 0  9999
2 48225  87.8971 307.4653 0001381  76.0548 284.0735 13.14504325236563
ONEWEB-0205             
1 48226U 21031S   26079.15606350  .00000286  00000+0  73727-3 0  9993
2 48226  87.8966 307.4624 0001675  77.1119 283.0198 13.14503800236578
ONEWEB-0206             
1 48227U 21031T   26079.12910105 -.00000118  00000+0 -35280-3 0  9995
2 48227  87.8977 307.4683 0001671  91.8559 268.2762 13.14504416236524
ONEWEB-0182             
1 48228U 21031U   26079.04823271 -.00000153  00000+0 -44730-3 0  9993
2 48228  87.8971 307.4962 0001467  79.1467 280.9828 13.14503234236722
ONEWEB-0186             
1 48229U 21031V   26079.13544913 -.00000022  00000+0 -94809-4 0  9995
2 48229  87.8968 307.4665 0001702  79.8506 280.2816 13.14503816236683
ONEWEB-0181             
1 48230U 21031W   26079.18936866 -.00000185  00000+0 -53476-3 0  9998
2 48230  87.8959 307.4965 0001849  79.9122 280.2216 13.14502634236541
ONEWEB-0188             
1 48231U 21031X   26079.15131089  .00000260  00000+0  66766-3 0  9998
2 48231  87.8958 307.5020 0001623  83.3822 276.7492 13.14503374236447
