[{"OBJECT_NAME":"ONEWEB-0198","OBJECT_ID":"2021-031G","EPOCH":"2026-03-20T02:13:35.820480","MEAN_MOTION":13.14502999,"ECCENTRICITY":0.00020776,"INCLINATION":87.8963,"RA_OF_ASC_NODE":307.5002,"ARG_OF_PERICENTER":78.0717,"MEAN_ANOMALY":282.0646,"EPHEMERIS_TYPE":0,"CLASSIFICATION_TYPE":"U","NORAD_CAT_ID":48216,"ELEMENT_SET_NO":999,"REV_AT_EPOCH":23678,"BSTAR":0.00039732464,"MEAN_MOTION_DOT":1.6e-6,"MEAN_MOTION_DDOT":0},{"OBJECT_NAME":"ONEWEB-0189","OBJECT_ID":"2021-031H","EPOCH":"2026-03-20T04:21:17.367264","MEAN_MOTION":13.14495047,"ECCENTRICITY":0.00020615,"INCLINATION":87.897,"RA_OF_ASC_NODE":307.4593,"ARG_OF_PERICENTER":80.448,"MEAN_ANOMALY":279.6882,"EPHEMERIS_TYPE":0,"CLASSIFICATION_TYPE":"U","NORAD_CAT_ID":48217,"ELEMENT_SET_NO":999,"REV_AT_EPOCH":23653,"BSTAR":-0.0022880505,"MEAN_MOTION_DOT":-8.35e-6,"MEAN_MOTION_DDOT":0},{"OBJECT_NAME":"ONEWEB-0196","OBJECT_ID":"2021-031J","EPOCH":"2026-03-20T03:49:17.838336","MEAN_MOTION":13.14503616,"ECCENTRICITY":0.00017581,"INCLINATION":87.8967,"RA_OF_ASC_NODE":307.475,"ARG_OF_PERICENTER":79.7448,"MEAN_ANOMALY":280.388,"EPHEMERIS_TYPE":0,"CLASSIFICATION_TYPE":"U","NORAD_CAT_ID":48218,"ELEMENT_SET_NO":999,"REV_AT_EPOCH":23653,"BSTAR":0.00062928084,"MEAN_MOTION_DOT":2.46e-6,"MEAN_MOTION_DDOT":0},{"OBJECT_NAME":"ONEWEB-0183","OBJECT_ID":"2021-031K","EPOCH":"2026-03-20T03:12:45.926496","MEAN_MOTION":13.1450335,"ECCENTRICITY":0.00015046,"INCLINATION":87.8968,"RA_OF_ASC_NODE":307.4797,"ARG_OF_PERICENTER":78.6038,"MEAN_ANOMALY":281.5261,"EPHEMERIS_TYPE":0,"CLASSIFICATION_TYPE":"U","NORAD_CAT_ID":48219,"ELEMENT_SET_NO":999,"REV_AT_EPOCH":23662,"BSTAR":-0.00019704701,"MEAN_MOTION_DOT":-6.0e-7,"MEAN_MOTION_DDOT":0},{"OBJECT_NAME":"ONEWEB-0185","OBJECT_ID":"2021-031L","EPOCH":"2026-03-20T03:50:26.787264","MEAN_MOTION":13.14502828,"ECCENTRICITY":0.00015812,"INCLINATION":87.8973,"RA_OF_ASC_NODE":307.4603,"ARG_OF_PERICENTER":71.0634,"MEAN_ANOMALY":289.0667,"EPHEMERIS_TYPE":0,"CLASSIFICATION_TYPE":"U","NORAD_CAT_ID":48220,"ELEMENT_SET_NO":999,"REV_AT_EPOCH":23655,"BSTAR":0.00061998306,"MEAN_MOTION_DOT":2.43e-6,"MEAN_MOTION_DDOT":0},{"OBJECT_NAME":"ONEWEB-0187","OBJECT_ID":"2021-031M","EPOCH":"2026-03-20T03:21:42.120576","MEAN_MOTION":13.14503544,"ECCENTRICITY":0.00017751,"INCLINATION":87.8955,"RA_OF_ASC_NODE":307.4953,"ARG_OF_PERICENTER":74.9492,"MEAN_ANOMALY":285.1834,"EPHEMERIS_TYPE":0,"CLASSIFICATION_TYPE":"U","NORAD_CAT_ID":48221,"ELEMENT_SET_NO":999,"REV_AT_EPOCH":23656,"BSTAR":0.00012449422,"MEAN_MOTION_DOT":5.9e-7,"MEAN_MOTION_DDOT":0},{"OBJECT_NAME":"ONEWEB-0192","OBJECT_ID":"2021-031N","EPOCH":"2026-03-20T04:28:06.987936","MEAN_MOTION":13.14504003,"ECCENTRICITY":0.00017238,"INCLINATION":87.8955,"RA_OF_ASC_NODE":307.4749,"ARG_OF_PERICENTER":83.1608,"MEAN_ANOMALY":276.9718,"EPHEMERIS_TYPE":0,"CLASSIFICATION_TYPE":"U","NORAD_CAT_ID":48222,"ELEMENT_SET_NO":999,"REV_AT_EPOCH":23648,"BSTAR":-0.00017157517,"MEAN_MOTION_DOT":-5.1e-7,"MEAN_MOTION_DDOT":0},{"OBJECT_NAME":"ONEWEB-0219","OBJECT_ID":"2021-031P","EPOCH":"2026-03-20T03:58:25.719744","MEAN_MOTION":13.14503838,"ECCENTRICITY":0.00016891,"INCLINATION":87.8968,"RA_OF_ASC_NODE":307.4656,"ARG_OF_PERICENTER":74.3793,"MEAN_ANOMALY":285.7523,"EPHEMERIS_TYPE":0,"CLASSIFICATION_TYPE":"U","NORAD_CAT_ID":48223,"ELEMENT_SET_NO":999,"REV_AT_EPOCH":23668,"BSTAR":0.00058187196,"MEAN_MOTION_DOT":2.29e-6,"MEAN_MOTION_DDOT":0},{"OBJECT_NAME":"ONEWEB-0202","OBJECT_ID":"2021-031Q","EPOCH":"2026-03-20T03:31:01.870752","MEAN_MOTION":13.14502488,"ECCENTRICITY":0.00023286,"INCLINATION":87.8965,"RA_OF_ASC_NODE":307.4779,"ARG_OF_PERICENTER":84.6749,"MEAN_ANOMALY":275.4647,"EPHEMERIS_TYPE":0,"CLASSIFICATION_TYPE":"U","NORAD_CAT_ID":48224,"ELEMENT_SET_NO":999,"REV_AT_EPOCH":23666,"BSTAR":0.00048725521,"MEAN_MOTION_DOT":1.93e-6,"MEAN_MOTION_DDOT":0},{"OBJECT_NAME":"ONEWEB-0204","OBJECT_ID":"2021-031R","EPOCH":"2026-03-20T04:20:06.580608","MEAN_MOTION":13.14504325,"ECCENTRICITY":0.00013814,"INCLINATION":87.8971,"RA_OF_ASC_NODE":307.4653,"ARG_OF_PERICENTER":76.0548,"MEAN_ANOMALY":284.0735,"EPHEMERIS_TYPE":0,"CLASSIFICATION_TYPE":"U","NORAD_CAT_ID":48225,"ELEMENT_SET_NO":999,"REV_AT_EPOCH":23656,"BSTAR":-1.8668397e-5,"MEAN_MOTION_DOT":6.0e-8,"MEAN_MOTION_DDOT":0},{"OBJECT_NAME":"ONEWEB-0205","OBJECT_ID":"2021-031S","EPOCH":"2026-03-20T03:44:43.886400","MEAN_MOTION":13.145038,"ECCENTRICITY":0.00016758,"INCLINATION":87.8966,"RA_OF_ASC_NODE":307.4624,"ARG_OF_PERICENTER":77.1119,"MEAN_ANOMALY":283.0198,"EPHEMERIS_TYPE":0,"CLASSIFICATION_TYPE":"U","NORAD_CAT_ID":48226,"ELEMENT_SET_NO":999,"REV_AT_EPOCH":23657,"BSTAR":0.00073726513,"MEAN_MOTION_DOT":2.86e-6,"MEAN_MOTION_DDOT":0},{"OBJECT_NAME":"ONEWEB-0206","OBJECT_ID":"2021-031T","EPOCH":"2026-03-20T03:05:54.330720","MEAN_MOTION":13.14504416,"ECCENTRICITY":0.0001671,"INCLINATION":87.8977,"RA_OF_ASC_NODE":307.4683,"ARG_OF_PERICENTER":91.8559,"MEAN_ANOMALY":268.2762,"EPHEMERIS_TYPE":0,"CLASSIFICATION_TYPE":"U","NORAD_CAT_ID":48227,"ELEMENT_SET_NO":999,"REV_AT_EPOCH":23652,"BSTAR":-0.00035280355,"MEAN_MOTION_DOT":-1.18e-6,"MEAN_MOTION_DDOT":0},{"OBJECT_NAME":"ONEWEB-0182","OBJECT_ID":"2021-031U","EPOCH":"2026-03-20T01:09:27.306144","MEAN_MOTION":13.14503234,"ECCENTRICITY":0.00014678,"INCLINATION":87.8971,"RA_OF_ASC_NODE":307.4962,"ARG_OF_PERICENTER":79.1467,"MEAN_ANOMALY":280.9828,"EPHEMERIS_TYPE":0,"CLASSIFICATION_TYPE":"U","NORAD_CAT_ID":48228,"ELEMENT_SET_NO":999,"REV_AT_EPOCH":23672,"BSTAR":-0.00044730368,"MEAN_MOTION_DOT":-1.53e-6,"MEAN_MOTION_DDOT":0},{"OBJECT_NAME":"ONEWEB-0186","OBJECT_ID":"2021-031V","EPOCH":"2026-03-20T03:15:02.804832","MEAN_MOTION":13.14503816,"ECCENTRICITY":0.00017029,"INCLINATION":87.8968,"RA_OF_ASC_NODE":307.4665,"ARG_OF_PERICENTER":79.8506,"MEAN_ANOMALY":280.2816,"EPHEMERIS_TYPE":0,"CLASSIFICATION_TYPE":"U","NORAD_CAT_ID":48229,"ELEMENT_SET_NO":999,"REV_AT_EPOCH":23668,"BSTAR":-9.4808674e-5,"MEAN_MOTION_DOT":-2.2e-7,"MEAN_MOTION_DDOT":0},{"OBJECT_NAME":"ONEWEB-0181","OBJECT_ID":"2021-031W","EPOCH":"2026-03-20T04:32:41.452224","MEAN_MOTION":13.14502634,"ECCENTRICITY":0.00018497,"INCLINATION":87.8959,"RA_OF_ASC_NODE":307.4965,"ARG_OF_PERICENTER":79.9122,"MEAN_ANOMALY":280.2216,"EPHEMERIS_TYPE":0,"CLASSIFICATION_TYPE":"U","NORAD_CAT_ID":48230,"ELEMENT_SET_NO":999,"REV_AT_EPOCH":23654,"BSTAR":-0.00053475508,"MEAN_MOTION_DOT":-1.85e-6,"MEAN_MOTION_DDOT":0},{"OBJECT_NAME":"ONEWEB-0188","OBJECT_ID":"2021-031X","EPOCH":"2026-03-20T03:37:53.260896","MEAN_MOTION":13.14503374,"ECCENTRICITY":0.00016237,"INCLINATION":87.8958,"RA_OF_ASC_NODE":307.502,"ARG_OF_PERICENTER":83.3822,"MEAN_ANOMALY":276.7492,"EPHEMERIS_TYPE":0,"CLASSIFICATION_TYPE":"U","NORAD_CAT_ID":48231,"ELEMENT_SET_NO":999,"REV_AT_EPOCH":23644,"BSTAR":0.0006676627,"MEAN_MOTION_DOT":2.6e-6,"MEAN_MOTION_DDOT":0}]
